[{"OBJECT_NAME":"TEVEL2-2","OBJECT_ID":"2025-052K","EPOCH":"2026-03-14T03:50:14.189280","MEAN_MOTION":15.30541286,"ECCENTRICITY":0.00049004,"INCLINATION":97.399,"RA_OF_ASC_NODE":329.2648,"ARG_OF_PERICENTER":97.5178,"MEAN_ANOMALY":262.6619,"EPHEMERIS_TYPE":0,"CLASSIFICATION_TYPE":"U","NORAD_CAT_ID":63219,"ELEMENT_SET_NO":999,"REV_AT_EPOCH":5554,"BSTAR":0.00075479666,"MEAN_MOTION_DOT":0.0002226,"MEAN_MOTION_DDOT":0},{"OBJECT_NAME":"TEVEL2-9","OBJECT_ID":"2025-052AD","EPOCH":"2026-03-14T14:40:31.403712","MEAN_MOTION":15.28837495,"ECCENTRICITY":0.00083498,"INCLINATION":97.4057,"RA_OF_ASC_NODE":329.2758,"ARG_OF_PERICENTER":110.742,"MEAN_ANOMALY":249.4715,"EPHEMERIS_TYPE":0,"CLASSIFICATION_TYPE":"U","NORAD_CAT_ID":63237,"ELEMENT_SET_NO":999,"REV_AT_EPOCH":5556,"BSTAR":0.0008611899,"MEAN_MOTION_DOT":0.00024133,"MEAN_MOTION_DDOT":0},{"OBJECT_NAME":"TEVEL2-7","OBJECT_ID":"2025-052AE","EPOCH":"2026-03-14T10:33:44.682336","MEAN_MOTION":15.28605048,"ECCENTRICITY":0.00084623,"INCLINATION":97.4061,"RA_OF_ASC_NODE":329.056,"ARG_OF_PERICENTER":111.2673,"MEAN_ANOMALY":248.9471,"EPHEMERIS_TYPE":0,"CLASSIFICATION_TYPE":"U","NORAD_CAT_ID":63238,"ELEMENT_SET_NO":999,"REV_AT_EPOCH":5553,"BSTAR":0.00075490152,"MEAN_MOTION_DOT":0.00020987,"MEAN_MOTION_DDOT":0},{"OBJECT_NAME":"TEVEL2-8","OBJECT_ID":"2025-052AF","EPOCH":"2026-03-14T13:52:29.045280","MEAN_MOTION":15.28593389,"ECCENTRICITY":0.00084098,"INCLINATION":97.4063,"RA_OF_ASC_NODE":329.174,"ARG_OF_PERICENTER":111.3705,"MEAN_ANOMALY":248.8433,"EPHEMERIS_TYPE":0,"CLASSIFICATION_TYPE":"U","NORAD_CAT_ID":63239,"ELEMENT_SET_NO":999,"REV_AT_EPOCH":5555,"BSTAR":0.00088741036,"MEAN_MOTION_DOT":0.00024687,"MEAN_MOTION_DDOT":0},{"OBJECT_NAME":"HADES-ICM","OBJECT_ID":"2025-052BN","EPOCH":"2026-03-14T10:50:24.246528","MEAN_MOTION":15.58396426,"ECCENTRICITY":0.00091447,"INCLINATION":97.3933,"RA_OF_ASC_NODE":334.0766,"ARG_OF_PERICENTER":102.4397,"MEAN_ANOMALY":257.7883,"EPHEMERIS_TYPE":0,"CLASSIFICATION_TYPE":"U","NORAD_CAT_ID":63492,"ELEMENT_SET_NO":999,"REV_AT_EPOCH":5588,"BSTAR":0.0022705091,"MEAN_MOTION_DOT":0.00176304,"MEAN_MOTION_DDOT":0}]
