TEVEL2-2                
1 63219U 25052K   26073.15988645  .00022260  00000+0  75480-3 0  9997
2 63219  97.3990 329.2648 0004900  97.5178 262.6619 15.30541286 55540
TEVEL2-9                
1 63237U 25052AD  26073.61147458  .00024133  00000+0  86119-3 0  9999
2 63237  97.4057 329.2758 0008349 110.7420 249.4715 15.28837495 55565
TEVEL2-7                
1 63238U 25052AE  26073.44010049  .00020987  00000+0  75490-3 0  9999
2 63238  97.4061 329.0560 0008462 111.2673 248.9471 15.28605048 55539
TEVEL2-8                
1 63239U 25052AF  26073.57811395  .00024687  00000+0  88741-3 0  9991
2 63239  97.4063 329.1740 0008409 111.3705 248.8433 15.28593389 55554
HADES-ICM               
1 63492U 25052BN  26073.45166952  .00176304  00000+0  22705-2 0  9992
2 63492  97.3933 334.0766 0009144 102.4397 257.7883 15.58396426 55888
